{"type": "FeatureCollection", "features": [ {"type": "Feature", "properties": {"norad_id": 66869, "name": "STARLINK-36092", "group": "last-30-days", "lat": -25.15073257101736, "lon": 19.906098572683607, "alt_km": 398.0459833777131, "timestamp": "2025-12-24T14:43:27.721746+00:00", "meta": {"OBJECT_NAME": "STARLINK-36092", "OBJECT_ID": "2025-281X", "EPOCH": "2025-12-24T06:00:02.000160", "MEAN_MOTION": 15.58612899, "ECCENTRICITY": 0.00012502, "INCLINATION": 43.0001, "RA_OF_ASC_NODE": 52.3111, "ARG_OF_PERICENTER": 284.2523, "MEAN_ANOMALY": 156.3049, "EPHEMERIS_TYPE": 0, "CLASSIFICATION_TYPE": "U", "NORAD_CAT_ID": 66869, "ELEMENT_SET_NO": 999, "REV_AT_EPOCH": 327, "BSTAR": -0.029449584, "MEAN_MOTION_DOT": -0.02070028, "MEAN_MOTION_DDOT": 0}, "tle": {"line1": "1 66869U 25281X   25358.25002315 -.02070028  00000+0 -29450-1 0  9995", "line2": "2 66869  43.0001  52.3111 0001250 284.2523 156.3049 15.58612899  3276"}}, "geometry": {"type": "Point", "coordinates": [19.906098572683607, -25.15073257101736]}}, {"type": "Feature", "properties": {"norad_id": 66870, "name": "STARLINK-36114", "group": "last-30-days", "lat": -24.01112687262805, "lon": 21.60004390322911, "alt_km": 397.84012664568945, "timestamp": "2025-12-24T14:43:27.721780+00:00", "meta": {"OBJECT_NAME": "STARLINK-36114", "OBJECT_ID": "2025-281Y", "EPOCH": "2025-12-24T06:00:02.000160", "MEAN_MOTION": 15.58605497, "ECCENTRICITY": 0.00015198, "INCLINATION": 43.0003, "RA_OF_ASC_NODE": 52.3071, "ARG_OF_PERICENTER": 282.2513, "MEAN_ANOMALY": 160.2249, "EPHEMERIS_TYPE": 0, "CLASSIFICATION_TYPE": "U", "NORAD_CAT_ID": 66870, "ELEMENT_SET_NO": 999, "REV_AT_EPOCH": 314, "BSTAR": -0.029220408, "MEAN_MOTION_DOT": -0.02016904, "MEAN_MOTION_DDOT": 0}, "tle": {"line1": "1 66870U 25281Y   25358.25002315 -.02016904  00000+0 -29220-1 0  9995", "line2": "2 66870  43.0003  52.3071 0001519 282.2513 160.2249 15.58605497  3148"}}, "geometry": {"type": "Point", "coordinates": [21.60004390322911, -24.01112687262805]}}, {"type": "Feature", "properties": {"norad_id": 66871, "name": "STARLINK-36095", "group": "last-30-days", "lat": -22.85734525670037, "lon": 23.255736280495537, "alt_km": 397.91900107138736, "timestamp": "2025-12-24T14:43:27.721791+00:00", "meta": {"OBJECT_NAME": "STARLINK-36095", "OBJECT_ID": "2025-281Z", "EPOCH": "2025-12-24T06:00:02.000160", "MEAN_MOTION": 15.58615978, "ECCENTRICITY": 0.00012345, "INCLINATION": 43.0001, "RA_OF_ASC_NODE": 52.3013, "ARG_OF_PERICENTER": 284.8599, "MEAN_ANOMALY": 159.5299, "EPHEMERIS_TYPE": 0, "CLASSIFICATION_TYPE": "U", "NORAD_CAT_ID": 66871, "ELEMENT_SET_NO": 999, "REV_AT_EPOCH": 327, "BSTAR": -0.029534773, "MEAN_MOTION_DOT": -0.02075577, "MEAN_MOTION_DDOT": 0}, "tle": {"line1": "1 66871U 25281Z   25358.25002315 -.02075577  00000+0 -29535-1 0  9996", "line2": "2 66871  43.0001  52.3013 0001234 284.8599 159.5299 15.58615978  3274"}}, "geometry": {"type": "Point", "coordinates": [23.255736280495537, -22.85734525670037]}}, {"type": "Feature", "properties": {"norad_id": 66872, "name": "STARLINK-36082", "group": "last-30-days", "lat": -21.68282999755878, "lon": 24.890073754502556, "alt_km": 397.7289482752976, "timestamp": "2025-12-24T14:43:27.721801+00:00", "meta": {"OBJECT_NAME": "STARLINK-36082", "OBJECT_ID": "2025-281AA", "EPOCH": "2025-12-24T06:00:02.000160", "MEAN_MOTION": 15.58604632, "ECCENTRICITY": 0.00014105, "INCLINATION": 43.0001, "RA_OF_ASC_NODE": 52.2969, "ARG_OF_PERICENTER": 284.7786, "MEAN_ANOMALY": 161.5319, "EPHEMERIS_TYPE": 0, "CLASSIFICATION_TYPE": "U", "NORAD_CAT_ID": 66872, "ELEMENT_SET_NO": 999, "REV_AT_EPOCH": 314, "BSTAR": -0.02921056, "MEAN_MOTION_DOT": -0.02016171, "MEAN_MOTION_DDOT": 0}, "tle": {"line1": "1 66872U 25281AA  25358.25002315 -.02016171  00000+0 -29211-1 0  9993", "line2": "2 66872  43.0001  52.2969 0001410 284.7786 161.5319 15.58604632  3144"}}, "geometry": {"type": "Point", "coordinates": [24.890073754502556, -21.68282999755878]}}, {"type": "Feature", "properties": {"norad_id": 66873, "name": "STARLINK-36128", "group": "last-30-days", "lat": -18.072871232064568, "lon": 29.632909216146675, "alt_km": 397.71565271915006, "timestamp": "2025-12-24T14:43:27.721811+00:00", "meta": {"OBJECT_NAME": "STARLINK-36128", "OBJECT_ID": "2025-281AB", "EPOCH": "2025-12-24T06:00:02.000160", "MEAN_MOTION": 15.58611279, "ECCENTRICITY": 0.00012355, "INCLINATION": 43.0002, "RA_OF_ASC_NODE": 52.2817, "ARG_OF_PERICENTER": 277.2045, "MEAN_ANOMALY": 174.8517, "EPHEMERIS_TYPE": 0, "CLASSIFICATION_TYPE": "U", "NORAD_CAT_ID": 66873, "ELEMENT_SET_NO": 999, "REV_AT_EPOCH": 327, "BSTAR": -0.029311326, "MEAN_MOTION_DOT": -0.02061227, "MEAN_MOTION_DDOT": 0}, "tle": {"line1": "1 66873U 25281AB  25358.25002315 -.02061227  00000+0 -29311-1 0  9997", "line2": "2 66873  43.0002  52.2817 0001235 277.2045 174.8517 15.58611279  3274"}}, "geometry": {"type": "Point", "coordinates": [29.632909216146675, -18.072871232064568]}}, {"type": "Feature", "properties": {"norad_id": 66874, "name": "STARLINK-36129", "group": "last-30-days", "lat": -20.495282000573173, "lon": 26.49289248541713, "alt_km": 397.94345421233265, "timestamp": "2025-12-24T14:43:27.721826+00:00", "meta": {"OBJECT_NAME": "STARLINK-36129", "OBJECT_ID": "2025-281AC", "EPOCH": "2025-12-24T06:00:02.000160", "MEAN_MOTION": 15.58615172, "ECCENTRICITY": 0.00010217, "INCLINATION": 43.0001, "RA_OF_ASC_NODE": 52.2914, "ARG_OF_PERICENTER": 281.1216, "MEAN_ANOMALY": 167.1029, "EPHEMERIS_TYPE": 0, "CLASSIFICATION_TYPE": "U", "NORAD_CAT_ID": 66874, "ELEMENT_SET_NO": 999, "REV_AT_EPOCH": 327, "BSTAR": -0.029512294, "MEAN_MOTION_DOT": -0.02073974, "MEAN_MOTION_DDOT": 0}, "tle": {"line1": "1 66874U 25281AC  25358.25002315 -.02073974  00000+0 -29512-1 0  9993", "line2": "2 66874  43.0001  52.2914 0001021 281.1216 167.1029 15.58615172  3278"}}, "geometry": {"type": "Point", "coordinates": [26.49289248541713, -20.495282000573173]}}, {"type": "Feature", "properties": {"norad_id": 66875, "name": "STARLINK-36053", "group": "last-30-days", "lat": -16.845218619779292, "lon": 31.164542826319803, "alt_km": 397.55241883075087, "timestamp": "2025-12-24T14:43:27.721836+00:00", "meta": {"OBJECT_NAME": "STARLINK-36053", "OBJECT_ID": "2025-281AD", "EPOCH": "2025-12-24T06:00:02.000160", "MEAN_MOTION": 15.5861303, "ECCENTRICITY": 0.00011033, "INCLINATION": 43, "RA_OF_ASC_NODE": 52.2753, "ARG_OF_PERICENTER": 287.2709, "MEAN_ANOMALY": 166.7064, "EPHEMERIS_TYPE": 0, "CLASSIFICATION_TYPE": "U", "NORAD_CAT_ID": 66875, "ELEMENT_SET_NO": 999, "REV_AT_EPOCH": 327, "BSTAR": -0.029485744, "MEAN_MOTION_DOT": -0.0207221, "MEAN_MOTION_DDOT": 0}, "tle": {"line1": "1 66875U 25281AD  25358.25002315 -.02072210  00000+0 -29486-1 0  9996", "line2": "2 66875  43.0000  52.2753 0001103 287.2709 166.7064 15.58613030  3279"}}, "geometry": {"type": "Point", "coordinates": [31.164542826319803, -16.845218619779292]}}, {"type": "Feature", "properties": {"norad_id": 66876, "name": "STARLINK-35702", "group": "last-30-days", "lat": -19.29061099394622, "lon": 28.075505861388486, "alt_km": 397.5655186680624, "timestamp": "2025-12-24T14:43:27.721846+00:00", "meta": {"OBJECT_NAME": "STARLINK-35702", "OBJECT_ID": "2025-281AE", "EPOCH": "2025-12-24T06:00:02.000160", "MEAN_MOTION": 15.58609749, "ECCENTRICITY": 0.0001445, "INCLINATION": 43.0003, "RA_OF_ASC_NODE": 52.2871, "ARG_OF_PERICENTER": 283.8717, "MEAN_ANOMALY": 166.2658, "EPHEMERIS_TYPE": 0, "CLASSIFICATION_TYPE": "U", "NORAD_CAT_ID": 66876, "ELEMENT_SET_NO": 999, "REV_AT_EPOCH": 327, "BSTAR": -0.029234694, "MEAN_MOTION_DOT": -0.02017997, "MEAN_MOTION_DDOT": 0}, "tle": {"line1": "1 66876U 25281AE  25358.25002315 -.02017997  00000+0 -29235-1 0  9990", "line2": "2 66876  43.0003  52.2871 0001445 283.8717 166.2658 15.58609749  3270"}}, "geometry": {"type": "Point", "coordinates": [28.075505861388486, -19.29061099394622]}}, {"type": "Feature", "properties": {"norad_id": 66877, "name": "ZQ-3 R/B", "group": "last-30-days", "lat": -48.49578642457031, "lon": -121.23902301121193, "alt_km": 148.16983181176965, "timestamp": "2025-12-24T14:43:27.721857+00:00", "meta": {"OBJECT_NAME": "ZQ-3 R/B", "OBJECT_ID": "2025-282A", "EPOCH": "2025-12-24T07:07:57.607392", "MEAN_MOTION": 14.83128541, "ECCENTRICITY": 0.06813087, "INCLINATION": 56.949, "RA_OF_ASC_NODE": 12.637, "ARG_OF_PERICENTER": 240.3532, "MEAN_ANOMALY": 112.7991, "EPHEMERIS_TYPE": 0, "CLASSIFICATION_TYPE": "U", "NORAD_CAT_ID": 66877, "ELEMENT_SET_NO": 999, "REV_AT_EPOCH": 309, "BSTAR": 0.00016559042, "MEAN_MOTION_DOT": 0.00968191, "MEAN_MOTION_DDOT": 7.900271e-06}, "tle": {"line1": "1 66877U 25282A   25358.29719453  .00968191  79003-5  16559-3 0  9993", "line2": "2 66877  56.9490  12.6370 0681308 240.3532 112.7991 14.83128541  3092"}}, "geometry": {"type": "Point", "coordinates": [-121.23902301121193, -48.49578642457031]}}, {"type": "Feature", "properties": {"norad_id": 66878, "name": "STARLINK-35866", "group": "last-30-days", "lat": 53.06072520486479, "lon": 100.22964552159655, "alt_km": 366.38917800545914, "timestamp": "2025-12-24T14:43:27.721867+00:00", "meta": {"OBJECT_NAME": "STARLINK-35866", "OBJECT_ID": "2025-283A", "EPOCH": "2025-12-24T06:00:02.000160", "MEAN_MOTION": 15.66205931, "ECCENTRICITY": 0.00014315, "INCLINATION": 53.1597, "RA_OF_ASC_NODE": 16.3522, "ARG_OF_PERICENTER": 88.4708, "MEAN_ANOMALY": 109.3225, "EPHEMERIS_TYPE": 0, "CLASSIFICATION_TYPE": "U", "NORAD_CAT_ID": 66878, "ELEMENT_SET_NO": 999, "REV_AT_EPOCH": 427, "BSTAR": -0.021945629, "MEAN_MOTION_DOT": -0.02025353, "MEAN_MOTION_DDOT": 0}, "tle": {"line1": "1 66878U 25283A   25358.25002315 -.02025353  00000+0 -21946-1 0  9990", "line2": "2 66878  53.1597  16.3522 0001431  88.4708 109.3225 15.66205931  4273"}}, "geometry": {"type": "Point", "coordinates": [100.22964552159655, 53.06072520486479]}}]}